OBJECT_NAME,OBJECT_ID,EPOCH,MEAN_MOTION,ECCENTRICITY,INCLINATION,RA_OF_ASC_NODE,ARG_OF_PERICENTER,MEAN_ANOMALY,EPHEMERIS_TYPE,CLASSIFICATION_TYPE,NORAD_CAT_ID,ELEMENT_SET_NO,REV_AT_EPOCH,BSTAR,MEAN_MOTION_DOT,MEAN_MOTION_DDOT
GAOFEN-3,2016-049A,2026-06-04T20:57:45.014688,14.42213469,.000114,98.4010,163.8452,97.9280,262.2039,0,U,41727,999,51687,.4423E-5,-.29E-6,0
SKYSAT-C4,2016-058B,2026-06-04T14:25:12.408384,15.48178997,.0001014,96.9178,177.9032,76.6548,283.4816,0,U,41771,999,54352,.35272E-3,.1848E-3,0
SKYSAT-C5,2016-058C,2026-06-04T15:32:48.402816,15.34283511,.0002477,97.0472,196.8488,17.7086,342.4244,0,U,41772,999,54182,.26457E-3,.8709E-4,0
SKYSAT-C2,2016-058D,2026-06-04T14:30:33.655680,15.41772175,.0005223,97.0170,178.1756,97.1315,263.0527,0,U,41773,999,54311,.32133E-3,.13526E-3,0
SKYSAT-C3,2016-058E,2026-06-04T15:17:37.129920,15.51982831,.0002145,96.9013,186.9718,81.3848,278.7649,0,U,41774,999,54416,.39099E-3,.23453E-3,0
ALSAT-1B,2016-059C,2026-06-04T20:53:58.174944,14.72266192,.0007701,97.7749,165.1661,267.2222,92.8105,0,U,41785,999,51876,.11882E-3,.703E-5,0
PATHFINDER 1,2016-059E,2026-06-04T14:12:23.089824,14.67648560,.0027053,97.8166,155.4368,245.2808,114.5581,0,U,41787,999,51786,.13888E-3,.747E-5,0
SCATSAT 1,2016-059H,2026-06-04T15:12:52.822080,14.79499457,.0053309,98.1196,219.2704,288.9518,70.5920,0,U,41790,999,9973,.18549E-3,.1362E-4,0
GOKTURK 1A,2016-073A,2026-06-04T19:06:29.522592,14.62764819,.0001464,98.1264,50.6643,76.2654,283.8711,0,U,41875,999,50701,.65936E-4,.29E-5,0
RESOURCESAT-2A,2016-074A,2026-06-04T19:46:58.808064,14.21612926,.0003267,98.7525,229.4291,106.5557,253.5979,0,U,41877,999,49254,.18518E-3,.362E-5,0
CARTOSAT-2D,2017-008A,2026-06-04T18:37:46.509600,15.19226465,.0003842,97.4117,215.3117,296.6092,63.4749,0,U,41948,999,51569,-.10973E-3,-.2376E-4,0
SENTINEL-2B,2017-013A,2026-06-04T19:54:59.065920,14.30813222,.0001219,98.5691,230.7780,84.3622,275.7700,0,U,42063,999,48287,.7107E-4,.143E-5,0
CARTOSAT-2E,2017-036C,2026-06-04T20:37:55.018848,15.19218069,.0003529,97.4276,215.8645,10.8918,349.2392,0,U,42767,999,49627,.15259E-3,.3145E-4,0
FORMOSAT-5,2017-049A,2026-06-04T17:00:09.482976,14.50894134,.0012583,98.2254,231.2952,118.8366,241.4094,0,U,42920,999,46486,.70919E-4,.236E-5,0
SENTINEL-5P,2017-064A,2026-06-03T10:58:13.453824,14.19516465,.00010192,98.7922,96.6865,80.8558,279.2733,0,U,42969,999,44761,.5408796E-4,.7E-6,0
SKYSAT-C11,2017-068A,2026-06-04T11:09:55.122912,15.57213211,.0001221,97.4344,303.7498,89.5801,270.5594,0,U,42987,999,48126,.41977E-3,.30496E-3,0
SKYSAT-C10,2017-068B,2026-06-04T04:26:58.509024,15.34404874,.00013402,97.4496,291.9093,90.5092,269.6305,0,U,42988,999,48036,.31430865E-3,.10395E-3,0
SKYSAT-C9,2017-068C,2026-06-04T04:34:08.959008,15.41226215,.00087083,97.4417,292.7260,175.2134,184.9197,0,U,42989,999,48075,.36175194E-3,.14971E-3,0
SKYSAT-C8,2017-068D,2026-06-03T15:43:49.521792,15.36695849,.00015876,97.4513,291.1227,100.5716,259.5707,0,U,42990,999,48023,.33596648E-3,.11964E-3,0
SKYSAT-C7,2017-068E,2026-06-03T07:45:06.640992,15.36634585,.00068117,97.4524,291.7746,147.4751,212.6913,0,U,42991,999,48024,.34605537E-3,.12311E-3,0
SKYSAT-C6,2017-068F,2026-06-03T20:10:13.454400,15.34215986,.00027079,97.4560,292.3173,163.5662,196.5669,0,U,42992,999,48027,.31166974E-3,.10246E-3,0
CARTOSAT-2F,2018-004A,2026-06-04T19:49:04.674720,15.19275345,.0000309,97.4790,215.5805,11.8547,348.2695,0,U,43111,999,46545,.23887E-3,.497E-4,0
GAOFEN-1 02,2018-031A,2026-06-04T19:53:21.802848,14.76464580,.0004472,98.0527,218.3895,61.0737,299.0920,0,U,43259,999,44087,.15956E-3,.1059E-4,0
GAOFEN-1 03,2018-031B,2026-06-04T20:59:28.832064,14.76451337,.0003791,98.0526,218.2952,103.7916,256.3716,0,U,43260,999,44087,.1399E-3,.922E-5,0
GAOFEN-1 04,2018-031D,2026-06-04T20:24:33.637248,14.76459484,.0002191,98.0529,218.4600,94.2824,265.8636,0,U,43262,999,44086,.73396E-4,.459E-5,0
SENTINEL-3B,2018-039A,2026-06-04T15:16:30.150048,14.26738215,.0000957,98.6251,223.3483,75.6484,284.4803,0,U,43437,999,42233,.80159E-4,.15E-5,0
GAOFEN-5 01,2018-043A,2026-06-03T11:56:38.529888,14.60595182,.00029,98.4563,125.7972,108.1077,252.0439,0,U,43461,999,42969,.90445E-4,.391E-5,0
GAOFEN-6,2018-048A,2026-06-04T20:57:58.805856,14.76618053,.0011119,97.7760,219.0086,209.2179,150.8411,0,U,43484,999,43157,.13487E-3,.894E-5,0
GAOFEN-11 01,2018-063A,2026-06-04T21:11:42.843264,15.54922072,.0004541,97.1297,222.7994,40.0874,320.0715,0,U,43585,999,43843,.24605E-3,.16368E-3,0
ICESAT-2,2018-070A,2026-06-04T15:33:43.621920,15.28289791,.000469,92.0072,287.5930,121.5414,238.6294,0,U,43613,999,43054,.40758E-3,.11233E-3,0
