GAOFEN-3                
1 41727U 16049A   26155.87343767 -.00000029  00000+0  44230-5 0  9994
2 41727  98.4010 163.8452 0001140  97.9280 262.2039 14.42213469516872
SKYSAT-C4               
1 41771U 16058B   26155.60083806  .00018480  00000+0  35272-3 0  9992
2 41771  96.9178 177.9032 0001014  76.6548 283.4816 15.48178997543523
SKYSAT-C5               
1 41772U 16058C   26155.64778244  .00008709  00000+0  26457-3 0  9992
2 41772  97.0472 196.8488 0002477  17.7086 342.4244 15.34283511541821
SKYSAT-C2               
1 41773U 16058D   26155.60455620  .00013526  00000+0  32133-3 0  9990
2 41773  97.0170 178.1756 0005223  97.1315 263.0527 15.41772175543110
SKYSAT-C3               
1 41774U 16058E   26155.63723530  .00023453  00000+0  39099-3 0  9990
2 41774  96.9013 186.9718 0002145  81.3848 278.7649 15.51982831544163
ALSAT-1B                
1 41785U 16059C   26155.87081221  .00000703  00000+0  11882-3 0  9996
2 41785  97.7749 165.1661 0007701 267.2222  92.8105 14.72266192518766
PATHFINDER 1            
1 41787U 16059E   26155.59193391  .00000747  00000+0  13888-3 0  9995
2 41787  97.8166 155.4368 0027053 245.2808 114.5581 14.67648560517863
SCATSAT 1               
1 41790U 16059H   26155.63394470  .00001362  00000+0  18549-3 0  9998
2 41790  98.1196 219.2704 0053309 288.9518  70.5920 14.79499457 99733
GOKTURK 1A              
1 41875U 16073A   26155.79617503  .00000290  00000+0  65936-4 0  9992
2 41875  98.1264  50.6643 0001464  76.2654 283.8711 14.62764819507017
RESOURCESAT-2A          
1 41877U 16074A   26155.82429176  .00000362  00000+0  18518-3 0  9999
2 41877  98.7525 229.4291 0003267 106.5557 253.5979 14.21612926492549
CARTOSAT-2D             
1 41948U 17008A   26155.77623275 -.00002376  00000+0 -10973-3 0  9992
2 41948  97.4117 215.3117 0003842 296.6092  63.4749 15.19226465515698
SENTINEL-2B             
1 42063U 17013A   26155.82985030  .00000143  00000+0  71070-4 0  9997
2 42063  98.5691 230.7780 0001219  84.3622 275.7700 14.30813222482873
CARTOSAT-2E             
1 42767U 17036C   26155.85966457  .00003145  00000+0  15259-3 0  9999
2 42767  97.4276 215.8645 0003529  10.8918 349.2392 15.19218069496272
FORMOSAT-5              
1 42920U 17049A   26155.70844309  .00000236  00000+0  70919-4 0  9992
2 42920  98.2254 231.2952 0012583 118.8366 241.4094 14.50894134464866
SENTINEL-5P             
1 42969U 17064A   26154.45710016  .00000070  00000+0  54088-4 0  9995
2 42969  98.7922  96.6865 0001019  80.8558 279.2733 14.19516465447611
SKYSAT-C11              
1 42987U 17068A   26155.46522133  .00030496  00000+0  41977-3 0  9999
2 42987  97.4344 303.7498 0001221  89.5801 270.5594 15.57213211481265
SKYSAT-C10              
1 42988U 17068B   26155.18539941  .00010395  00000+0  31431-3 0  9994
2 42988  97.4496 291.9093 0001340  90.5092 269.6305 15.34404874480360
SKYSAT-C9               
1 42989U 17068C   26155.19038147  .00014971  00000+0  36175-3 0  9992
2 42989  97.4417 292.7260 0008708 175.2134 184.9197 15.41226215480752
SKYSAT-C8               
1 42990U 17068D   26154.65543428  .00011964  00000+0  33597-3 0  9991
2 42990  97.4513 291.1227 0001587 100.5716 259.5707 15.36695849480238
SKYSAT-C7               
1 42991U 17068E   26154.32299353  .00012311  00000+0  34606-3 0  9990
2 42991  97.4524 291.7746 0006811 147.4751 212.6913 15.36634585480247
SKYSAT-C6               
1 42992U 17068F   26154.84043350  .00010246  00000+0  31167-3 0  9996
2 42992  97.4560 292.3173 0002707 163.5662 196.5669 15.34215986480278
CARTOSAT-2F             
1 43111U 18004A   26155.82574855  .00004970  00000+0  23887-3 0  9996
2 43111  97.4790 215.5805 0000309  11.8547 348.2695 15.19275345465455
GAOFEN-1 02             
1 43259U 18031A   26155.82872457  .00001059  00000+0  15956-3 0  9991
2 43259  98.0527 218.3895 0004472  61.0737 299.0920 14.76464580440872
GAOFEN-1 03             
1 43260U 18031B   26155.87463926  .00000922  00000+0  13990-3 0  9999
2 43260  98.0526 218.2952 0003791 103.7916 256.3716 14.76451337440877
GAOFEN-1 04             
1 43262U 18031D   26155.85038932  .00000459  00000+0  73396-4 0  9996
2 43262  98.0529 218.4600 0002191  94.2824 265.8636 14.76459484440865
SENTINEL-3B             
1 43437U 18039A   26155.63646007  .00000150  00000+0  80159-4 0  9995
2 43437  98.6251 223.3483 0000957  75.6484 284.4803 14.26738215422336
GAOFEN-5 01             
1 43461U 18043A   26154.49766817  .00000391  00000+0  90445-4 0  9998
2 43461  98.4563 125.7972 0002900 108.1077 252.0439 14.60595182429699
GAOFEN-6                
1 43484U 18048A   26155.87359729  .00000894  00000+0  13487-3 0  9999
2 43484  97.7760 219.0086 0011119 209.2179 150.8411 14.76618053431571
GAOFEN-11 01            
1 43585U 18063A   26155.88313476  .00016368  00000+0  24605-3 0  9995
2 43585  97.1297 222.7994 0004541  40.0874 320.0715 15.54922072438431
ICESAT-2                
1 43613U 18070A   26155.64842155  .00011233  00000+0  40758-3 0  9993
2 43613  92.0072 287.5930 0004690 121.5414 238.6294 15.28289791430542
